[{"OBJECT_NAME":"STARLINK-31452","OBJECT_ID":"2024-073S","EPOCH":"2026-03-08T17:13:05.514816","MEAN_MOTION":15.27575157,"ECCENTRICITY":7.728e-5,"INCLINATION":43.0013,"RA_OF_ASC_NODE":323.7939,"ARG_OF_PERICENTER":273.2657,"MEAN_ANOMALY":86.8106,"EPHEMERIS_TYPE":0,"CLASSIFICATION_TYPE":"U","NORAD_CAT_ID":59527,"ELEMENT_SET_NO":999,"REV_AT_EPOCH":10602,"BSTAR":-9.144056e-6,"MEAN_MOTION_DOT":-5.13e-6,"MEAN_MOTION_DDOT":0},{"OBJECT_NAME":"KUIPER-00276","OBJECT_ID":"2026-030AG","EPOCH":"2026-03-09T22:00:01.999584","MEAN_MOTION":15.30162454,"ECCENTRICITY":0.00186471,"INCLINATION":51.8824,"RA_OF_ASC_NODE":218.7283,"ARG_OF_PERICENTER":66.9346,"MEAN_ANOMALY":101.1527,"EPHEMERIS_TYPE":0,"CLASSIFICATION_TYPE":"U","NORAD_CAT_ID":67794,"ELEMENT_SET_NO":999,"REV_AT_EPOCH":482,"BSTAR":0.0021152378,"MEAN_MOTION_DOT":0.00063116,"MEAN_MOTION_DDOT":0}]
